{
  "type": "FeatureCollection",
  "features": [
    {
      "type": "Feature",
      "properties": {
        "norad_id": 41581,
        "name": "INTELSAT 31 (IS-31)",
        "group": "intelsat",
        "lat": -0.017271146761114558,
        "lon": 139.14709404091707,
        "alt_km": 35785.43692492289,
        "timestamp": "2025-12-02T10:50:46.941322+00:00",
        "meta_object_name": "INTELSAT 31 (IS-31)",
        "meta_object_id": "2016-035A",
        "meta_epoch": "2025-12-02T03:03:32.131008",
        "meta_mean_motion": 1.00269746,
        "meta_eccentricity": 0.0001912,
        "meta_inclination": 0.0151,
        "meta_ra_of_asc_node": 270.5944,
        "meta_arg_of_pericenter": 309.5464,
        "meta_mean_anomaly": 161.9273,
        "meta_ephemeris_type": 0,
        "meta_classification_type": "U",
        "meta_norad_cat_id": 41581,
        "meta_element_set_no": 999,
        "meta_rev_at_epoch": 3470,
        "meta_bstar": 0,
        "meta_mean_motion_dot": -1.3e-06,
        "meta_mean_motion_ddot": 0,
        "tle_line1": "1 41581U 16035A   25336.12745522 -.00000130  00000+0  00000+0 0  9994",
        "tle_line2": "2 41581   0.0151 270.5944 0001912 309.5464 161.9273  1.00269746 34701"
      },
      "geometry": {
        "type": "Point",
        "coordinates": [
          139.14709404091707,
          -0.017271146761114558
        ]
      }
    },
    {
      "type": "Feature",
      "properties": {
        "norad_id": 41747,
        "name": "INTELSAT 36 (IS-36)",
        "group": "intelsat",
        "lat": -0.013595831535666012,
        "lon": -57.25191246103918,
        "alt_km": 35777.10469182387,
        "timestamp": "2025-12-02T10:50:46.941334+00:00",
        "meta_object_name": "INTELSAT 36 (IS-36)",
        "meta_object_id": "2016-053A",
        "meta_epoch": "2025-12-01T21:50:38.751936",
        "meta_mean_motion": 1.00278088,
        "meta_eccentricity": 0.0001727,
        "meta_inclination": 0.0108,
        "meta_ra_of_asc_node": 342.6383,
        "meta_arg_of_pericenter": 327.7333,
        "meta_mean_anomaly": 156.8269,
        "meta_ephemeris_type": 0,
        "meta_classification_type": "U",
        "meta_norad_cat_id": 41747,
        "meta_element_set_no": 999,
        "meta_rev_at_epoch": 3397,
        "meta_bstar": 0,
        "meta_mean_motion_dot": -5e-08,
        "meta_mean_motion_ddot": 0,
        "tle_line1": "1 41747U 16053A   25335.91017074 -.00000005  00000+0  00000+0 0  9999",
        "tle_line2": "2 41747   0.0108 342.6383 0001727 327.7333 156.8269  1.00278088 33971"
      },
      "geometry": {
        "type": "Point",
        "coordinates": [
          -57.25191246103918,
          -0.013595831535666012
        ]
      }
    },
    {
      "type": "Feature",
      "properties": {
        "norad_id": 41945,
        "name": "INTELSAT 32E (IS-32E)",
        "group": "intelsat",
        "lat": -0.006042578438531907,
        "lon": -168.9415755186387,
        "alt_km": 35786.93189539032,
        "timestamp": "2025-12-02T10:50:46.941345+00:00",
        "meta_object_name": "INTELSAT 32E (IS-32E)",
        "meta_object_id": "2017-007B",
        "meta_epoch": "2025-12-02T03:18:20.977920",
        "meta_mean_motion": 1.00270118,
        "meta_eccentricity": 8.4e-06,
        "meta_inclination": 0.0227,
        "meta_ra_of_asc_node": 55.6817,
        "meta_arg_of_pericenter": 304.3916,
        "meta_mean_anomaly": 77.5977,
        "meta_ephemeris_type": 0,
        "meta_classification_type": "U",
        "meta_norad_cat_id": 41945,
        "meta_element_set_no": 999,
        "meta_rev_at_epoch": 3224,
        "meta_bstar": 0,
        "meta_mean_motion_dot": -2.48e-06,
        "meta_mean_motion_ddot": 0,
        "tle_line1": "1 41945U 17007B   25336.13774280 -.00000248  00000+0  00000+0 0  9992",
        "tle_line2": "2 41945   0.0227  55.6817 0000084 304.3916  77.5977  1.00270118 32249"
      },
      "geometry": {
        "type": "Point",
        "coordinates": [
          -168.9415755186387,
          -0.006042578438531907
        ]
      }
    },
    {
      "type": "Feature",
      "properties": {
        "norad_id": 42818,
        "name": "INTELSAT 35E (IS-35E)",
        "group": "intelsat",
        "lat": -0.03805356363105127,
        "lon": -160.2702197689535,
        "alt_km": 35779.34761182038,
        "timestamp": "2025-12-02T10:50:46.941357+00:00",
        "meta_object_name": "INTELSAT 35E (IS-35E)",
        "meta_object_id": "2017-041A",
        "meta_epoch": "2025-12-02T03:20:50.740224",
        "meta_mean_motion": 1.00273188,
        "meta_eccentricity": 0.0002347,
        "meta_inclination": 0.0173,
        "meta_ra_of_asc_node": 312.6291,
        "meta_arg_of_pericenter": 297.2688,
        "meta_mean_anomaly": 197.0874,
        "meta_ephemeris_type": 0,
        "meta_classification_type": "U",
        "meta_norad_cat_id": 42818,
        "meta_element_set_no": 999,
        "meta_rev_at_epoch": 3084,
        "meta_bstar": 0,
        "meta_mean_motion_dot": -2.17e-06,
        "meta_mean_motion_ddot": 0,
        "tle_line1": "1 42818U 17041A   25336.13947616 -.00000217  00000+0  00000+0 0  9991",
        "tle_line2": "2 42818   0.0173 312.6291 0002347 297.2688 197.0874  1.00273188 30849"
      },
      "geometry": {
        "type": "Point",
        "coordinates": [
          -160.2702197689535,
          -0.03805356363105127
        ]
      }
    },
    {
      "type": "Feature",
      "properties": {
        "norad_id": 42950,
        "name": "INTELSAT 37E (IS-37E)",
        "group": "intelsat",
        "lat": -0.03465299572723457,
        "lon": -143.78576415011858,
        "alt_km": 35773.685651729225,
        "timestamp": "2025-12-02T10:50:46.941368+00:00",
        "meta_object_name": "INTELSAT 37E (IS-37E)",
        "meta_object_id": "2017-059A",
        "meta_epoch": "2025-12-02T02:44:38.740128",
        "meta_mean_motion": 1.00271022,
        "meta_eccentricity": 0.000339,
        "meta_inclination": 0.0128,
        "meta_ra_of_asc_node": 290.8013,
        "meta_arg_of_pericenter": 313.8771,
        "meta_mean_anomaly": 209.7169,
        "meta_ephemeris_type": 0,
        "meta_classification_type": "U",
        "meta_norad_cat_id": 42950,
        "meta_element_set_no": 999,
        "meta_rev_at_epoch": 3009,
        "meta_bstar": 0,
        "meta_mean_motion_dot": -1.19e-06,
        "meta_mean_motion_ddot": 0,
        "tle_line1": "1 42950U 17059A   25336.11433727 -.00000119  00000+0  00000+0 0  9999",
        "tle_line2": "2 42950   0.0128 290.8013 0003390 313.8771 209.7169  1.00271022 30092"
      },
      "geometry": {
        "type": "Point",
        "coordinates": [
          -143.78576415011858,
          -0.03465299572723457
        ]
      }
    },
    {
      "type": "Feature",
      "properties": {
        "norad_id": 43632,
        "name": "AZERSPACE 2 (IS-38)",
        "group": "intelsat",
        "lat": -0.017037549865544722,
        "lon": -80.65530410027799,
        "alt_km": 35779.880348144805,
        "timestamp": "2025-12-02T10:50:46.941380+00:00",
        "meta_object_name": "AZERSPACE 2 (IS-38)",
        "meta_object_id": "2018-074A",
        "meta_epoch": "2025-12-02T03:43:33.563712",
        "meta_mean_motion": 1.00270954,
        "meta_eccentricity": 0.000168,
        "meta_inclination": 0.003,
        "meta_ra_of_asc_node": 345.5003,
        "meta_arg_of_pericenter": 267.9964,
        "meta_mean_anomaly": 278.7706,
        "meta_ephemeris_type": 0,
        "meta_classification_type": "U",
        "meta_norad_cat_id": 43632,
        "meta_element_set_no": 999,
        "meta_rev_at_epoch": 2647,
        "meta_bstar": 0,
        "meta_mean_motion_dot": 1.57e-06,
        "meta_mean_motion_ddot": 0,
        "tle_line1": "1 43632U 18074A   25336.15524958  .00000157  00000+0  00000+0 0  9997",
        "tle_line2": "2 43632   0.0030 345.5003 0001680 267.9964 278.7706  1.00270954 26475"
      },
      "geometry": {
        "type": "Point",
        "coordinates": [
          -80.65530410027799,
          -0.017037549865544722
        ]
      }
    },
    {
      "type": "Feature",
      "properties": {
        "norad_id": 43633,
        "name": "HORIZONS-3E",
        "group": "intelsat",
        "lat": 0.015127362929829436,
        "lon": 43.25345987839332,
        "alt_km": 35788.38806386086,
        "timestamp": "2025-12-02T10:50:46.941391+00:00",
        "meta_object_name": "HORIZONS-3E",
        "meta_object_id": "2018-074B",
        "meta_epoch": "2025-12-01T18:02:30.823296",
        "meta_mean_motion": 1.00268041,
        "meta_eccentricity": 7.08e-05,
        "meta_inclination": 0.0287,
        "meta_ra_of_asc_node": 212.6289,
        "meta_arg_of_pericenter": 75.528,
        "meta_mean_anomaly": 222.3695,
        "meta_ephemeris_type": 0,
        "meta_classification_type": "U",
        "meta_norad_cat_id": 43633,
        "meta_element_set_no": 999,
        "meta_rev_at_epoch": 2636,
        "meta_bstar": 0,
        "meta_mean_motion_dot": -9e-08,
        "meta_mean_motion_ddot": 0,
        "tle_line1": "1 43633U 18074B   25335.75174564 -.00000009  00000+0  00000+0 0  9994",
        "tle_line2": "2 43633   0.0287 212.6289 0000708  75.5280 222.3695  1.00268041 26368"
      },
      "geometry": {
        "type": "Point",
        "coordinates": [
          43.25345987839332,
          0.015127362929829436
        ]
      }
    }
  ]
}